HERMES-3                
1 63835U 25052BR  26068.93751242  .00020316  00000+0  69958-3 0  9995
2 63835  97.3987 324.6131 0007993 112.9583 247.2502 15.30039785 54863
STARLINK-34851          
1 66447U 25259AB  26068.93316712  .00024322  00000+0  88990-3 0  9993
2 66447  43.0025 273.3864 0001861 268.9338  91.1300 15.27600809 19418
